ORBCOMM FM06            
1 25118U 97084G   26204.36474650  .00000756  00000+0  24243-3 0  9999
2 25118  45.0123 238.5417 0001925 258.4959 115.6696 14.47638611499639
ORBCOMM FM04            
1 25159U 98007C   26204.55453310  .00000578  00000+0  24317-3 0  9995
2 25159 107.9632 244.2721 0042068 262.7010  96.9348 14.35794454481819
ORBCOMM FM19            
1 25415U 98046C   26204.04708506  .00000769  00000+0  28939-3 0  9993
2 25415  44.9940  73.0970 0003355 114.5844  31.5424 14.39552862461946
ORBCOMM FM20            
1 25416U 98046D   26204.34542379  .00000550  00000+0  22628-3 0  9998
2 25416  44.9942  80.0020 0000843  64.6072 295.4863 14.38109322461991
ORBCOMM FM27            
1 25481U 98053G   26204.28438412  .00000731  00000+0  27938-3 0  9993
2 25481  45.0040 163.8943 0001974 322.2806  37.7904 14.39195799455431
ORBCOMM FM32            
1 25982U 99065C   26204.43799661  .00000469  00000+0  20343-3 0  9997
2 25982  45.0169   1.6441 0006398 230.0107 130.0180 14.37175804392308
ORBCOMM FM109           
1 40086U 14040A   26203.50594400  .00000088  00000+0  54798-4 0  9999
2 40086  47.0030 284.4996 0001098 346.5261  13.5595 14.58874903639501
ORBCOMM FM110           
1 41182U 15081D   26204.33230193  .00000700  00000+0  18419-3 0  9991
2 41182  47.0004 190.5313 0003835 254.1022 105.9441 14.58928581562907
ORBCOMM FM118           
1 41183U 15081E   26204.36681444  .00000614  00000+0  16589-3 0  9994
2 41183  47.0026 190.7088 0003284 220.0538 140.0106 14.58912847563014
ORBCOMM FM112           
1 41184U 15081F   26204.43910998  .00000575  00000+0  15772-3 0  9991
2 41184  46.9990  98.8143 0003182   5.2324 354.8595 14.58948016564246
ORBCOMM FM113           
1 41185U 15081G   26204.07460570  .00000311  00000+0  10187-3 0  9991
2 41185  47.0007 100.9337 0001765 353.8183   6.2680 14.58888123564175
ORBCOMM FM108           
1 41187U 15081J   26204.51583634  .00000493  00000+0  14030-3 0  9991
2 41187  47.0061  10.4291 0002096 355.3827   4.7039 14.58918953565381
ORBCOMM FM117           
1 41188U 15081K   26204.48164395  .00000486  00000+0  13899-3 0  9991
2 41188  47.0024   9.2159 0002489   4.0715 356.0191 14.58905810565425
ORBCOMM FM116           
1 41189U 15081L   26204.39324306  .00000490  00000+0  13968-3 0  9994
2 41189  47.0023  99.4237 0001764 251.6985 108.3709 14.58914992564228
